{
  "type": "FeatureCollection",
  "features": [
    {
      "type": "Feature",
      "properties": {
        "norad_id": 37836,
        "name": "EUTELSAT 16A",
        "group": "eutelsat",
        "lat": -0.06511501822832859,
        "lon": -135.66747668842203,
        "alt_km": 35770.20596298551,
        "timestamp": "2025-12-23T07:45:09.067979+00:00",
        "meta_object_name": "EUTELSAT 16A",
        "meta_object_id": "2011-057A",
        "meta_epoch": "2025-12-22T21:07:38.532576",
        "meta_mean_motion": 1.00270265,
        "meta_eccentricity": 0.00058571,
        "meta_inclination": 0.0575,
        "meta_ra_of_asc_node": 343.5463,
        "meta_arg_of_pericenter": 289.8455,
        "meta_mean_anomaly": 151.1873,
        "meta_ephemeris_type": 0,
        "meta_classification_type": "U",
        "meta_norad_cat_id": 37836,
        "meta_element_set_no": 999,
        "meta_rev_at_epoch": 556,
        "meta_bstar": 0,
        "meta_mean_motion_dot": 1.25e-06,
        "meta_mean_motion_ddot": 0,
        "tle_line1": "1 37836U 11057A   25356.88030709  .00000125  00000+0  00000+0 0  9993",
        "tle_line2": "2 37836   0.0575 343.5463 0005857 289.8455 151.1873  1.00270265  5565"
      },
      "geometry": {
        "type": "Point",
        "coordinates": [
          -135.66747668842203,
          -0.06511501822832859
        ]
      }
    },
    {
      "type": "Feature",
      "properties": {
        "norad_id": 38992,
        "name": "EUTELSAT 21B",
        "group": "eutelsat",
        "lat": -0.07730112585788042,
        "lon": -130.0494360717135,
        "alt_km": 35776.992554408076,
        "timestamp": "2025-12-23T07:45:09.067991+00:00",
        "meta_object_name": "EUTELSAT 21B",
        "meta_object_id": "2012-062B",
        "meta_epoch": "2025-12-22T18:24:16.820640",
        "meta_mean_motion": 1.00270077,
        "meta_eccentricity": 0.0003259,
        "meta_inclination": 0.067,
        "meta_ra_of_asc_node": 344.82,
        "meta_arg_of_pericenter": 291.6131,
        "meta_mean_anomaly": 112.7889,
        "meta_ephemeris_type": 0,
        "meta_classification_type": "U",
        "meta_norad_cat_id": 38992,
        "meta_element_set_no": 999,
        "meta_rev_at_epoch": 4805,
        "meta_bstar": 0,
        "meta_mean_motion_dot": 1.51e-06,
        "meta_mean_motion_ddot": 0,
        "tle_line1": "1 38992U 12062B   25356.76686135  .00000151  00000+0  00000+0 0  9990",
        "tle_line2": "2 38992   0.0670 344.8200 0003259 291.6131 112.7889  1.00270077 48056"
      },
      "geometry": {
        "type": "Point",
        "coordinates": [
          -130.0494360717135,
          -0.07730112585788042
        ]
      }
    },
    {
      "type": "Feature",
      "properties": {
        "norad_id": 39020,
        "name": "EUTELSAT 70B",
        "group": "eutelsat",
        "lat": -0.07975153160399778,
        "lon": -81.09872909363925,
        "alt_km": 35771.27213619057,
        "timestamp": "2025-12-23T07:45:09.068003+00:00",
        "meta_object_name": "EUTELSAT 70B",
        "meta_object_id": "2012-069A",
        "meta_epoch": "2025-12-22T22:03:33.323616",
        "meta_mean_motion": 1.00269369,
        "meta_eccentricity": 0.000404,
        "meta_inclination": 0.0638,
        "meta_ra_of_asc_node": 342.0834,
        "meta_arg_of_pericenter": 271.5621,
        "meta_mean_anomaly": 239.4495,
        "meta_ephemeris_type": 0,
        "meta_classification_type": "U",
        "meta_norad_cat_id": 39020,
        "meta_element_set_no": 999,
        "meta_rev_at_epoch": 4774,
        "meta_bstar": 0,
        "meta_mean_motion_dot": -2.1e-07,
        "meta_mean_motion_ddot": 0,
        "tle_line1": "1 39020U 12069A   25356.91913569 -.00000021  00000+0  00000+0 0  9998",
        "tle_line2": "2 39020   0.0638 342.0834 0004040 271.5621 239.4495  1.00269369 47743"
      },
      "geometry": {
        "type": "Point",
        "coordinates": [
          -81.09872909363925,
          -0.07975153160399778
        ]
      }
    },
    {
      "type": "Feature",
      "properties": {
        "norad_id": 39122,
        "name": "EUTELSAT 117 WEST A",
        "group": "eutelsat",
        "lat": 0.03228302609550601,
        "lon": 91.60667733105716,
        "alt_km": 35797.52277160629,
        "timestamp": "2025-12-23T07:45:09.068015+00:00",
        "meta_object_name": "EUTELSAT 117 WEST A",
        "meta_object_id": "2013-012A",
        "meta_epoch": "2025-12-22T21:10:00.951744",
        "meta_mean_motion": 1.00270729,
        "meta_eccentricity": 0.00026377,
        "meta_inclination": 0.0248,
        "meta_ra_of_asc_node": 310.0112,
        "meta_arg_of_pericenter": 323.8799,
        "meta_mean_anomaly": 18.5042,
        "meta_ephemeris_type": 0,
        "meta_classification_type": "U",
        "meta_norad_cat_id": 39122,
        "meta_element_set_no": 999,
        "meta_rev_at_epoch": 4666,
        "meta_bstar": 0,
        "meta_mean_motion_dot": 9e-08,
        "meta_mean_motion_ddot": 0,
        "tle_line1": "1 39122U 13012A   25356.88195546  .00000009  00000+0  00000+0 0  9998",
        "tle_line2": "2 39122   0.0248 310.0112 0002637 323.8799  18.5042  1.00270729 46660"
      },
      "geometry": {
        "type": "Point",
        "coordinates": [
          91.60667733105716,
          0.03228302609550601
        ]
      }
    },
    {
      "type": "Feature",
      "properties": {
        "norad_id": 39163,
        "name": "EUTELSAT 7B",
        "group": "eutelsat",
        "lat": -0.04459724977527528,
        "lon": -144.66069311157798,
        "alt_km": 35791.631334785896,
        "timestamp": "2025-12-23T07:45:09.068027+00:00",
        "meta_object_name": "EUTELSAT 7B",
        "meta_object_id": "2013-022A",
        "meta_epoch": "2025-12-22T21:45:27.557280",
        "meta_mean_motion": 1.00271309,
        "meta_eccentricity": 0.00044597,
        "meta_inclination": 0.0651,
        "meta_ra_of_asc_node": 4.7392,
        "meta_arg_of_pericenter": 317.7185,
        "meta_mean_anomaly": 102.6044,
        "meta_ephemeris_type": 0,
        "meta_classification_type": "U",
        "meta_norad_cat_id": 39163,
        "meta_element_set_no": 999,
        "meta_rev_at_epoch": 4618,
        "meta_bstar": 0,
        "meta_mean_motion_dot": 6.9e-07,
        "meta_mean_motion_ddot": 0,
        "tle_line1": "1 39163U 13022A   25356.90656895  .00000069  00000+0  00000+0 0  9992",
        "tle_line2": "2 39163   0.0651   4.7392 0004459 317.7185 102.6044  1.00271309 46184"
      },
      "geometry": {
        "type": "Point",
        "coordinates": [
          -144.66069311157798,
          -0.04459724977527528
        ]
      }
    },
    {
      "type": "Feature",
      "properties": {
        "norad_id": 39612,
        "name": "EXPRESS-AT1",
        "group": "eutelsat",
        "lat": -0.045433121758262376,
        "lon": -95.60238050601707,
        "alt_km": 35788.1275568808,
        "timestamp": "2025-12-23T07:45:09.068039+00:00",
        "meta_object_name": "EXPRESS-AT1",
        "meta_object_id": "2014-010A",
        "meta_epoch": "2025-12-22T10:00:26.265888",
        "meta_mean_motion": 1.00271252,
        "meta_eccentricity": 7.176e-05,
        "meta_inclination": 0.023,
        "meta_ra_of_asc_node": 347.1334,
        "meta_arg_of_pericenter": 146.8279,
        "meta_mean_anomaly": 163.3666,
        "meta_ephemeris_type": 0,
        "meta_classification_type": "U",
        "meta_norad_cat_id": 39612,
        "meta_element_set_no": 999,
        "meta_rev_at_epoch": 4304,
        "meta_bstar": 0,
        "meta_mean_motion_dot": 0,
        "meta_mean_motion_ddot": 0,
        "tle_line1": "1 39612U 14010A   25356.41697067  .00000000  00000+0  00000+0 0  9996",
        "tle_line2": "2 39612   0.0230 347.1334 0000717 146.8279 163.3666  1.00271252 43047"
      },
      "geometry": {
        "type": "Point",
        "coordinates": [
          -95.60238050601707,
          -0.045433121758262376
        ]
      }
    },
    {
      "type": "Feature",
      "properties": {
        "norad_id": 39613,
        "name": "EXPRESS-AT2",
        "group": "eutelsat",
        "lat": 0.005655662422883123,
        "lon": -11.731064725169695,
        "alt_km": 35783.114073135344,
        "timestamp": "2025-12-23T07:45:09.068051+00:00",
        "meta_object_name": "EXPRESS-AT2",
        "meta_object_id": "2014-010B",
        "meta_epoch": "2025-12-22T22:23:23.924256",
        "meta_mean_motion": 1.00273647,
        "meta_eccentricity": 0.00014681,
        "meta_inclination": 0.016,
        "meta_ra_of_asc_node": 296.3454,
        "meta_arg_of_pericenter": 345.5914,
        "meta_mean_anomaly": 285.4983,
        "meta_ephemeris_type": 0,
        "meta_classification_type": "U",
        "meta_norad_cat_id": 39613,
        "meta_element_set_no": 999,
        "meta_rev_at_epoch": 4273,
        "meta_bstar": 0,
        "meta_mean_motion_dot": -2.59e-06,
        "meta_mean_motion_ddot": 0,
        "tle_line1": "1 39613U 14010B   25356.93291579 -.00000259  00000+0  00000+0 0  9999",
        "tle_line2": "2 39613   0.0160 296.3454 0001468 345.5914 285.4983  1.00273647 42739"
      },
      "geometry": {
        "type": "Point",
        "coordinates": [
          -11.731064725169695,
          0.005655662422883123
        ]
      }
    }
  ]
}